{
    "links": {
        "self": "http://www.neowsapp.com/rest/v1/neo/3781730?api_key=iIulBulltgU6a56xZRHN4H3l9WmuAYTsLGpBGhQ2"
    },
    "id": "3781730",
    "neo_reference_id": "3781730",
    "name": "(2017 SN12)",
    "designation": "2017 SN12",
    "nasa_jpl_url": "http://ssd.jpl.nasa.gov/sbdb.cgi?sstr=3781730",
    "absolute_magnitude_h": 25.0,
    "estimated_diameter": {
        "kilometers": {
            "estimated_diameter_min": 0.02658,
            "estimated_diameter_max": 0.0594346868
        },
        "meters": {
            "estimated_diameter_min": 26.58,
            "estimated_diameter_max": 59.4346868419
        },
        "miles": {
            "estimated_diameter_min": 0.0165160412,
            "estimated_diameter_max": 0.0369309908
        },
        "feet": {
            "estimated_diameter_min": 87.2047272,
            "estimated_diameter_max": 194.9956979785
        }
    },
    "is_potentially_hazardous_asteroid": false,
    "close_approach_data": [
        {
            "close_approach_date": "2017-09-30",
            "close_approach_date_full": "2017-Sep-30 17:56",
            "epoch_date_close_approach": 1506794160000,
            "relative_velocity": {
                "kilometers_per_second": "13.6646147209",
                "kilometers_per_hour": "49192.6129953588",
                "miles_per_hour": "30566.376669255"
            },
            "miss_distance": {
                "astronomical": "0.0516691746",
                "lunar": "20.0993089194",
                "kilometers": "7729598.464818102",
                "miles": "4802949.7702977276"
            },
            "orbiting_body": "Earth"
        }
    ],
    "orbital_data": {
        "orbit_id": "2",
        "orbit_determination_date": "2017-10-02 06:49:02",
        "first_observation_date": "2017-09-23",
        "last_observation_date": "2017-10-01",
        "data_arc_in_days": 8,
        "observations_used": 17,
        "orbit_uncertainty": "9",
        "minimum_orbit_intersection": ".031391",
        "jupiter_tisserand_invariant": "4.428",
        "epoch_osculation": "2458020.5",
        "eccentricity": ".4425450150919361",
        "semi_major_axis": "1.491086506951578",
        "inclination": "12.31426637131502",
        "ascending_node_longitude": "3.341076762681932",
        "orbital_period": "665.0475336779327",
        "perihelion_distance": ".8312136062293097",
        "perihelion_argument": "73.26001877954721",
        "aphelion_distance": "2.150959407673847",
        "perihelion_time": "2458076.516477157435",
        "mean_anomaly": "329.6774579928861",
        "mean_motion": ".5413146907095212",
        "equinox": "J2000",
        "orbit_class": {
            "orbit_class_type": "APO",
            "orbit_class_description": "Near-Earth asteroid orbits which cross the Earth’s orbit similar to that of 1862 Apollo",
            "orbit_class_range": "a (semi-major axis) > 1.0 AU; q (perihelion) < 1.017 AU"
        }
    },
    "is_sentry_object": false
}